NORAD_CAT_ID,OBJECT_NAME,OBJECT_TYPE,EPOCH,MEAN_MOTION,ECCENTRICITY,INCLINATION,RA_OF_ASC_NODE,ARG_OF_PERICENTER,MEAN_ANOMALY,BSTAR,MEAN_MOTION_DOT,MEAN_MOTION_DDOT,TLE_LINE0,TLE_LINE1,TLE_LINE2,SEMIMAJOR_AXIS,PERIOD,APOGEE,PERIGEE,DECAYED
52608.0,STARLINK-3979,PAYLOAD,2023-02-09 02:05:22,15.08856281,0.0001333,53.214,287.6607,99.3462,260.7681,0.00099145,0.00015533,0.0,0 STARLINK-3979,1 52608U 22052L   23040.08706644  .00015533  00000-0  99145-3 0  9994,2 52608  53.2140 287.6607 0001333  99.3462 260.7681 15.08856281 41455,6917.831,95.437,540.618,538.773,0.0
52608.0,STARLINK-3979,PAYLOAD,2023-02-09 19:34:37,15.08840896,0.0001304,53.2143,284.3899,104.4967,255.6169,0.00019206,2.77e-05,0.0,0 STARLINK-3979,1 52608U 22052L   23040.81571110  .00002770  00000-0  19206-3 0  9992,2 52608  53.2143 284.3899 0001304 104.4967 255.6169 15.08840896 41562,6917.878,95.437,540.645,538.841,0.0
52608.0,STARLINK-3979,PAYLOAD,2023-02-10 01:56:09,15.08851664,0.0001272,53.215,283.1993,101.2374,258.8761,0.00044333,6.777e-05,0.0,0 STARLINK-3979,1 52608U 22052L   23041.08066838  .00006777  00000-0  44333-3 0  9998,2 52608  53.2150 283.1993 0001272 101.2374 258.8761 15.08851664 41606,6917.845,95.437,540.59,538.83,0.0
52608.0,STARLINK-3979,PAYLOAD,2023-02-10 19:25:24,15.08840955,0.0001635,53.2146,279.9261,108.3424,251.7746,0.00020658,3.001e-05,0.0,0 STARLINK-3979,1 52608U 22052L   23041.80931348  .00003001  00000-0  20658-3 0  9996,2 52608  53.2146 279.9261 0001635 108.3424 251.7746 15.08840955 41346,6917.877,95.437,540.874,538.611,0.0
52608.0,STARLINK-3979,PAYLOAD,2023-02-10 22:36:10,15.08844073,0.0001053,53.2144,279.3358,85.5245,274.5867,0.00022706,3.328e-05,0.0,0 STARLINK-3979,1 52608U 22052L   23041.94178966  .00003328  00000-0  22706-3 0  9998,2 52608  53.2144 279.3358 0001053  85.5245 274.5867 15.08844073 41731,6917.868,95.437,540.461,539.004,0.0
52608.0,STARLINK-3979,PAYLOAD,2023-02-11 12:54:38,15.08842351,0.0001359,53.2142,276.6571,125.7513,234.3605,0.00017983,2.575e-05,0.0,0 STARLINK-3979,1 52608U 22052L   23042.53795028  .00002575  00000-0  17983-3 0  9992,2 52608  53.2142 276.6571 0001359 125.7513 234.3605 15.08842351 41450,6917.873,95.437,540.678,538.798,0.0
52608.0,STARLINK-3979,PAYLOAD,2023-02-11 17:40:48,15.08837098,0.0001002,53.2141,275.7662,108.5495,251.5606,5.0243e-05,5.12e-06,0.0,0 STARLINK-3979,1 52608U 22052L   23042.73667356  .00000512  00000-0  50243-4 0  9992,2 52608  53.2141 275.7662 0001002 108.5495 251.5606 15.08837098 41851,6917.889,95.438,540.447,539.061,0.0
52608.0,STARLINK-3979,PAYLOAD,2023-02-11 19:16:11,15.08838707,0.0001026,53.2141,275.4681,109.1564,250.954,3.1676e-05,2.16e-06,0.0,0 STARLINK-3979,1 52608U 22052L   23042.80291189  .00000216  00000-0  31676-4 0  9997,2 52608  53.2141 275.4681 0001026 109.1564 250.9540 15.08838707 41497,6917.884,95.438,540.459,539.04,0.0
52608.0,STARLINK-3979,PAYLOAD,2023-02-12 14:20:49,15.08832965,0.0001221,53.2126,271.9017,97.7951,262.318,2.9108e-05,1.75e-06,0.0,0 STARLINK-3979,1 52608U 22052L   23043.59779912  .00000175  00000-0  29108-4 0  9990,2 52608  53.2126 271.9017 0001221  97.7951 262.3180 15.08832965 41614,6917.902,95.438,540.612,538.922,0.0
52608.0,STARLINK-3979,PAYLOAD,2023-02-12 17:31:36,15.08831469,9.6e-05,53.2134,271.3068,101.4237,258.6863,-6.9266e-05,-1.39e-05,0.0,0 STARLINK-3979,1 52608U 22052L   23043.73027904 -.00001390  00000-0 -69266-4 0  9994,2 52608  53.2134 271.3068 0000960 101.4237 258.6863 15.08831469 42000,6917.906,95.438,540.436,539.107,0.0
52608.0,STARLINK-3979,PAYLOAD,2023-02-12 23:53:08,15.08841716,9.73e-05,53.2133,270.1178,98.849,261.2612,1.0723e-05,-1.17e-06,0.0,0 STARLINK-3979,1 52608U 22052L   23043.99523668 -.00000117  00000-0  10723-4 0  9999,2 52608  53.2133 270.1178 0000973  98.8490 261.2612 15.08841716 42044,6917.875,95.437,540.413,539.067,0.0
52608.0,STARLINK-3979,PAYLOAD,2023-02-13 14:11:37,15.08837327,8.06e-05,53.2137,267.4409,99.4118,260.6965,0.00018171,2.605e-05,0.0,0 STARLINK-3979,1 52608U 22052L   23044.59140090  .00002605  00000-0  18171-3 0  9997,2 52608  53.2137 267.4409 0000806  99.4118 260.6965 15.08837327 41768,6917.889,95.438,540.311,539.196,0.0
52608.0,STARLINK-3979,PAYLOAD,2023-02-13 15:47:00,15.08834676,8.4e-05,53.2134,267.143,104.7797,255.3288,0.00012571,1.713e-05,0.0,0 STARLINK-3979,1 52608U 22052L   23044.65764186  .00001713  00000-0  12571-3 0  9999,2 52608  53.2134 267.1430 0000840 104.7797 255.3288 15.08834676 42143,6917.897,95.438,540.343,539.181,0.0
52608.0,STARLINK-3979,PAYLOAD,2023-02-14 14:02:24,15.08840801,0.0001144,53.2125,262.9791,88.9414,271.1709,0.00022973,3.37e-05,0.0,0 STARLINK-3979,1 52608U 22052L   23045.58500295  .00003370  00000-0  22973-3 0  9999,2 52608  53.2125 262.9791 0001144  88.9414 271.1709 15.08840801 41918,6917.878,95.438,540.534,538.952,0.0
52608.0,STARLINK-3979,PAYLOAD,2023-02-14 15:37:47,15.08840179,0.0001087,53.2126,262.6819,89.8624,270.2493,0.00023508,3.455e-05,0.0,0 STARLINK-3979,1 52608U 22052L   23045.65124348  .00003455  00000-0  23508-3 0  9997,2 52608  53.2126 262.6819 0001087  89.8624 270.2493 15.08840179 41925,6917.88,95.438,540.497,538.993,0.0
52608.0,STARLINK-3979,PAYLOAD,2023-02-14 21:59:19,15.08845466,0.000111,53.2131,261.4923,88.5259,271.5861,0.00027595,4.107e-05,0.0,0 STARLINK-3979,1 52608U 22052L   23045.91620123  .00004107  00000-0  27595-3 0  9993,2 52608  53.2131 261.4923 0001110  88.5259 271.5861 15.08845466 42334,6917.864,95.437,540.497,538.961,0.0
52608.0,STARLINK-3979,PAYLOAD,2023-02-15 10:42:25,15.08838905,9.2e-05,53.2122,259.1126,83.6503,276.4594,0.00011155,1.488e-05,0.0,0 STARLINK-3979,1 52608U 22052L   23046.44612305  .00001488  00000-0  11155-3 0  9999,2 52608  53.2122 259.1126 0000920  83.6503 276.4594 15.08838905 42415,6917.884,95.438,540.385,539.112,0.0
52608.0,STARLINK-3979,PAYLOAD,2023-02-15 13:53:11,15.08839311,0.0001033,53.2128,258.5178,87.8623,272.2487,0.00010106,1.321e-05,0.0,0 STARLINK-3979,1 52608U 22052L   23046.57860437  .00001321  00000-0  10106-3 0  9995,2 52608  53.2128 258.5178 0001033  87.8623 272.2487 15.08839311 42064,6917.882,95.438,540.462,539.033,0.0
52608.0,STARLINK-3979,PAYLOAD,2023-02-15 20:14:43,15.08846354,9.28e-05,53.2123,257.3287,84.1461,275.9636,0.00021186,3.086e-05,0.0,0 STARLINK-3979,1 52608U 22052L   23046.84355971  .00003086  00000-0  21186-3 0  9997,2 52608  53.2123 257.3287 0000928  84.1461 275.9636 15.08846354 42105,6917.861,95.437,540.368,539.084,0.0
52608.0,STARLINK-3979,PAYLOAD,2023-02-16 08:57:48,15.08847265,0.0001059,53.2132,254.9507,79.7189,280.3923,0.00017747,2.538e-05,0.0,0 STARLINK-3979,1 52608U 22052L   23047.37347857  .00002538  00000-0  17747-3 0  9999,2 52608  53.2132 254.9507 0001059  79.7189 280.3923 15.08847265 42185,6917.858,95.437,540.456,538.991,0.0
52608.0,STARLINK-3979,PAYLOAD,2023-02-16 20:05:30,15.08844177,8.45e-05,53.2138,252.8689,87.4145,272.6943,0.00013153,1.806e-05,0.0,0 STARLINK-3979,1 52608U 22052L   23047.83715923  .00001806  00000-0  13153-3 0  9997,2 52608  53.2138 252.8689 0000845  87.4145 272.6943 15.08844177 42623,6917.868,95.437,540.317,539.148,0.0
52608.0,STARLINK-3979,PAYLOAD,2023-02-17 10:23:59,15.08834029,7.14e-05,53.2139,250.192,83.3267,276.7806,0.00011128,1.484e-05,0.0,0 STARLINK-3979,1 52608U 22052L   23048.43332318  .00001484  00000-0  11128-3 0  9999,2 52608  53.2139 250.1920 0000714  83.3267 276.7806 15.08834029 42716,6917.899,95.438,540.258,539.27,0.0
52608.0,STARLINK-3979,PAYLOAD,2023-02-17 13:34:45,15.08829858,9.72e-05,53.213,249.597,86.3736,273.7367,-3.8504e-05,-9e-06,0.0,0 STARLINK-3979,1 52608U 22052L   23048.56580674 -.00000900  00000-0 -38504-4 0  9995,2 52608  53.2130 249.5970 0000972  86.3736 273.7367 15.08829858 42368,6917.911,95.438,540.449,539.104,0.0
52608.0,STARLINK-3979,PAYLOAD,2023-02-17 19:56:18,15.08831123,9.86e-05,53.2143,248.4078,81.987,278.1234,6.8502e-06,-1.79e-06,0.0,0 STARLINK-3979,1 52608U 22052L   23048.83076902 -.00000179  00000-0  68502-5 0  9998,2 52608  53.2143 248.4078 0000986  81.9870 278.1234 15.08831123 42409,6917.908,95.438,540.455,539.09,0.0
52608.0,STARLINK-3979,PAYLOAD,2023-02-18 13:25:31,15.08855965,0.0001043,53.2144,245.1366,82.2084,277.9027,-0.00012447,-2.269e-05,0.0,0 STARLINK-3979,1 52608U 22052L   23049.55939598 -.00002269  00000-0 -12447-3 0  9995,2 52608  53.2144 245.1366 0001043  82.2084 277.9027 15.08855965 42519,6917.832,95.437,540.418,538.975,0.0
52608.0,STARLINK-3979,PAYLOAD,2023-02-18 19:47:03,15.08858689,0.0001033,53.2144,243.9469,81.5925,278.5184,-8.4912e-05,-1.64e-05,0.0,0 STARLINK-3979,1 52608U 22052L   23049.82435052 -.00001640  00000-0 -84912-4 0  9990,2 52608  53.2144 243.9469 0001033  81.5925 278.5184 15.08858689 42926,6917.823,95.436,540.403,538.974,0.0
52608.0,STARLINK-3979,PAYLOAD,2023-02-19 13:16:19,15.08829379,0.0001045,53.2144,240.6761,87.0462,273.065,9.036e-05,1.15e-05,0.0,0 STARLINK-3979,1 52608U 22052L   23050.55300625  .00001150  00000-0  90360-4 0  9997,2 52608  53.2144 240.6761 0001045  87.0462 273.0650 15.08829379 42668,6917.913,95.438,540.501,539.055,0.0
52608.0,STARLINK-3979,PAYLOAD,2023-02-19 19:37:52,15.08833333,0.0001022,53.2145,239.4867,86.5454,273.5655,0.00011625,1.563e-05,0.0,0 STARLINK-3979,1 52608U 22052L   23050.81796466  .00001563  00000-0  11625-3 0  9992,2 52608  53.2145 239.4867 0001022  86.5454 273.5655 15.08833333 43073,6917.901,95.438,540.473,539.059,0.0
52608.0,STARLINK-3979,PAYLOAD,2023-02-20 13:07:06,15.08836185,0.0001036,53.2145,236.2154,86.7077,273.4033,-3.4028e-05,-8.29e-06,0.0,0 STARLINK-3979,1 52608U 22052L   23051.54660794 -.00000829  00000-0 -34028-4 0  9996,2 52608  53.2145 236.2154 0001036  86.7077 273.4033 15.08836185 42813,6917.892,95.438,540.474,539.04,0.0
52608.0,STARLINK-3979,PAYLOAD,2023-02-20 22:39:25,15.08842121,0.0001061,53.2143,234.4307,85.1748,274.9365,3.3962e-05,2.53e-06,0.0,0 STARLINK-3979,1 52608U 22052L   23051.94404168  .00000253  00000-0  33962-4 0  9996,2 52608  53.2143 234.4307 0001061  85.1748 274.9365 15.08842121 43246,6917.874,95.437,540.473,539.005,0.0
